[{"OBJECT_NAME":"OBJECT L","OBJECT_ID":"2023-085L","EPOCH":"2026-03-09T23:02:21.999840","MEAN_MOTION":15.29079976,"ECCENTRICITY":0.0005428,"INCLINATION":97.486,"RA_OF_ASC_NODE":178.8598,"ARG_OF_PERICENTER":50.8528,"MEAN_ANOMALY":309.3193,"EPHEMERIS_TYPE":0,"CLASSIFICATION_TYPE":"U","NORAD_CAT_ID":57014,"ELEMENT_SET_NO":999,"REV_AT_EPOCH":15144,"BSTAR":0.00063462603,"MEAN_MOTION_DOT":0.00017871,"MEAN_MOTION_DDOT":0},{"OBJECT_NAME":"STARLINK-32681","OBJECT_ID":"2025-003V","EPOCH":"2026-03-09T21:39:56.873376","MEAN_MOTION":15.2761835,"ECCENTRICITY":0.00019782,"INCLINATION":43.0017,"RA_OF_ASC_NODE":269.2136,"ARG_OF_PERICENTER":273.7145,"MEAN_ANOMALY":86.3481,"EPHEMERIS_TYPE":0,"CLASSIFICATION_TYPE":"U","NORAD_CAT_ID":62506,"ELEMENT_SET_NO":999,"REV_AT_EPOCH":6691,"BSTAR":0.001220031,"MEAN_MOTION_DOT":0.00033503,"MEAN_MOTION_DDOT":0}]
